ONEWEB-0521             
1 54139U 22138AC  26128.20756355  .00000003  00000+0 -23672-4 0  9997
2 54139  87.9156 312.9244 0001961  95.5441 264.5915 13.19725067171495
ONEWEB-0522             
1 54140U 22138AD  26128.26285338 -.00000045  00000+0 -14387-3 0  9992
2 54140  87.9158 312.9153 0001860  85.2927 274.8418 13.19725170171544
ONEWEB-0523             
1 54141U 22138AE  26127.95495608  .00005082  00000+0  12441-1 0  9992
2 54141  87.9157 282.4662 0001844 118.5600 241.5719 13.20877834173993
ONEWEB-0524             
1 54142U 22138AF  26127.94404280  .00000606  00000+0  14582-2 0  9994
2 54142  87.9156 282.4652 0001022 111.8848 248.2394 13.20793681173990
ONEWEB-0525             
1 54143U 22138AG  26128.05436284  .00000006  00000+0 -18413-4 0  9991
2 54143  87.9155 312.9660 0001845  81.5090 278.6252 13.19724821171539
ONEWEB-0526             
1 54144U 22138AH  26128.23914131  .00000046  00000+0  82799-4 0  9995
2 54144  87.9156 312.9288 0001740  87.2999 272.8333 13.19723480171538
ONEWEB-0529             
1 54145U 22138AJ  26128.24231773  .00000018  00000+0  13638-4 0  9996
2 54145  87.9147 312.9404 0001803  81.8987 278.2350 13.19725116171555
ONEWEB-0531             
1 54146U 22138AK  26127.92994968 -.00004190  00000+0 -10350-1 0  9995
2 54146  87.9154 282.4659 0001544 112.6488 247.4808 13.20727951173995
ONEWEB-0535             
1 54147U 22138AL  26128.04804104 -.00000017  00000+0 -73778-4 0  9992
2 54147  87.9156 312.9606 0001834 101.2831 258.8508 13.19724814171542
ONEWEB-0536             
1 54148U 22138AM  26127.91719888  .00002228  00000+0  54436-2 0  9994
2 54148  87.9154 282.4946 0001515 136.2014 223.9240 13.20797380173982
ONEWEB-0527             
1 54642U 22166A   26128.27873968  .00000081  00000+0  16552-3 0  9997
2 54642  87.9233 251.9381 0001843 100.7517 259.3825 13.21826477166267
ONEWEB-0528             
1 54643U 22166B   26128.28462524  .00000129  00000+0  28144-3 0  9994
2 54643  87.9233 251.9408 0001840  93.2981 266.8364 13.21825308166270
ONEWEB-0539             
1 54644U 22166C   26128.24761730 -.00000241  00000+0 -61447-3 0  9992
2 54644  87.9240 251.9180 0002163 100.1983 259.9395 13.21825536166264
ONEWEB-0540             
1 54645U 22166D   26127.87599890 -.00000265  00000+0 -67295-3 0  9990
2 54645  87.9234 252.0250 0002016 101.6948 258.4412 13.21826071166205
ONEWEB-0542             
1 54646U 22166E   26128.25770533 -.00000060  00000+0 -17612-3 0  9990
2 54646  87.9244 251.9141 0002262 101.2618 258.8770 13.21827102166260
ONEWEB-0545             
1 54647U 22166F   26127.84391684  .00000087  00000+0  17841-3 0  9992
2 54647  87.9233 252.0114 0002420 104.9260 255.2142 13.21824977166171
