[{"OBJECT_NAME":"ONEWEB-0521","OBJECT_ID":"2022-138AC","EPOCH":"2026-05-08T04:58:53.490720","MEAN_MOTION":13.19725067,"ECCENTRICITY":0.0001961,"INCLINATION":87.9156,"RA_OF_ASC_NODE":312.9244,"ARG_OF_PERICENTER":95.5441,"MEAN_ANOMALY":264.5915,"EPHEMERIS_TYPE":0,"CLASSIFICATION_TYPE":"U","NORAD_CAT_ID":54139,"ELEMENT_SET_NO":999,"REV_AT_EPOCH":17149,"BSTAR":-2.3672000000000003e-05,"MEAN_MOTION_DOT":3e-08,"MEAN_MOTION_DDOT":0.0},{"OBJECT_NAME":"ONEWEB-0522","OBJECT_ID":"2022-138AD","EPOCH":"2026-05-08T06:18:30.532032","MEAN_MOTION":13.1972517,"ECCENTRICITY":0.000186,"INCLINATION":87.9158,"RA_OF_ASC_NODE":312.9153,"ARG_OF_PERICENTER":85.2927,"MEAN_ANOMALY":274.8418,"EPHEMERIS_TYPE":0,"CLASSIFICATION_TYPE":"U","NORAD_CAT_ID":54140,"ELEMENT_SET_NO":999,"REV_AT_EPOCH":17154,"BSTAR":-0.00014387,"MEAN_MOTION_DOT":-4.5e-07,"MEAN_MOTION_DDOT":0.0},{"OBJECT_NAME":"ONEWEB-0523","OBJECT_ID":"2022-138AE","EPOCH":"2026-05-07T22:55:08.205312","MEAN_MOTION":13.20877834,"ECCENTRICITY":0.0001844,"INCLINATION":87.9157,"RA_OF_ASC_NODE":282.4662,"ARG_OF_PERICENTER":118.56,"MEAN_ANOMALY":241.5719,"EPHEMERIS_TYPE":0,"CLASSIFICATION_TYPE":"U","NORAD_CAT_ID":54141,"ELEMENT_SET_NO":999,"REV_AT_EPOCH":17399,"BSTAR":0.012441,"MEAN_MOTION_DOT":5.082e-05,"MEAN_MOTION_DDOT":0.0},{"OBJECT_NAME":"ONEWEB-0524","OBJECT_ID":"2022-138AF","EPOCH":"2026-05-07T22:39:25.297920","MEAN_MOTION":13.20793681,"ECCENTRICITY":0.0001022,"INCLINATION":87.9156,"RA_OF_ASC_NODE":282.4652,"ARG_OF_PERICENTER":111.8848,"MEAN_ANOMALY":248.2394,"EPHEMERIS_TYPE":0,"CLASSIFICATION_TYPE":"U","NORAD_CAT_ID":54142,"ELEMENT_SET_NO":999,"REV_AT_EPOCH":17399,"BSTAR":0.0014582,"MEAN_MOTION_DOT":6.06e-06,"MEAN_MOTION_DDOT":0.0},{"OBJECT_NAME":"ONEWEB-0525","OBJECT_ID":"2022-138AG","EPOCH":"2026-05-08T01:18:16.949376","MEAN_MOTION":13.19724821,"ECCENTRICITY":0.0001845,"INCLINATION":87.9155,"RA_OF_ASC_NODE":312.966,"ARG_OF_PERICENTER":81.509,"MEAN_ANOMALY":278.6252,"EPHEMERIS_TYPE":0,"CLASSIFICATION_TYPE":"U","NORAD_CAT_ID":54143,"ELEMENT_SET_NO":999,"REV_AT_EPOCH":17153,"BSTAR":-1.8412999999999998e-05,"MEAN_MOTION_DOT":6e-08,"MEAN_MOTION_DDOT":0.0},{"OBJECT_NAME":"ONEWEB-0526","OBJECT_ID":"2022-138AH","EPOCH":"2026-05-08T05:44:21.809184","MEAN_MOTION":13.1972348,"ECCENTRICITY":0.000174,"INCLINATION":87.9156,"RA_OF_ASC_NODE":312.9288,"ARG_OF_PERICENTER":87.2999,"MEAN_ANOMALY":272.8333,"EPHEMERIS_TYPE":0,"CLASSIFICATION_TYPE":"U","NORAD_CAT_ID":54144,"ELEMENT_SET_NO":999,"REV_AT_EPOCH":17153,"BSTAR":8.2799e-05,"MEAN_MOTION_DOT":4.6e-07,"MEAN_MOTION_DDOT":0.0},{"OBJECT_NAME":"ONEWEB-0529","OBJECT_ID":"2022-138AJ","EPOCH":"2026-05-08T05:48:56.251872","MEAN_MOTION":13.19725116,"ECCENTRICITY":0.0001803,"INCLINATION":87.9147,"RA_OF_ASC_NODE":312.9404,"ARG_OF_PERICENTER":81.8987,"MEAN_ANOMALY":278.235,"EPHEMERIS_TYPE":0,"CLASSIFICATION_TYPE":"U","NORAD_CAT_ID":54145,"ELEMENT_SET_NO":999,"REV_AT_EPOCH":17155,"BSTAR":1.3638e-05,"MEAN_MOTION_DOT":1.8e-07,"MEAN_MOTION_DDOT":0.0},{"OBJECT_NAME":"ONEWEB-0531","OBJECT_ID":"2022-138AK","EPOCH":"2026-05-07T22:19:07.652352","MEAN_MOTION":13.20727951,"ECCENTRICITY":0.0001544,"INCLINATION":87.9154,"RA_OF_ASC_NODE":282.4659,"ARG_OF_PERICENTER":112.6488,"MEAN_ANOMALY":247.4808,"EPHEMERIS_TYPE":0,"CLASSIFICATION_TYPE":"U","NORAD_CAT_ID":54146,"ELEMENT_SET_NO":999,"REV_AT_EPOCH":17399,"BSTAR":-0.01035,"MEAN_MOTION_DOT":-4.19e-05,"MEAN_MOTION_DDOT":0.0},{"OBJECT_NAME":"ONEWEB-0535","OBJECT_ID":"2022-138AL","EPOCH":"2026-05-08T01:09:10.745856","MEAN_MOTION":13.19724814,"ECCENTRICITY":0.0001834,"INCLINATION":87.9156,"RA_OF_ASC_NODE":312.9606,"ARG_OF_PERICENTER":101.2831,"MEAN_ANOMALY":258.8508,"EPHEMERIS_TYPE":0,"CLASSIFICATION_TYPE":"U","NORAD_CAT_ID":54147,"ELEMENT_SET_NO":999,"REV_AT_EPOCH":17154,"BSTAR":-7.3778e-05,"MEAN_MOTION_DOT":-1.7e-07,"MEAN_MOTION_DDOT":0.0},{"OBJECT_NAME":"ONEWEB-0536","OBJECT_ID":"2022-138AM","EPOCH":"2026-05-07T22:00:45.983232","MEAN_MOTION":13.2079738,"ECCENTRICITY":0.0001515,"INCLINATION":87.9154,"RA_OF_ASC_NODE":282.4946,"ARG_OF_PERICENTER":136.2014,"MEAN_ANOMALY":223.924,"EPHEMERIS_TYPE":0,"CLASSIFICATION_TYPE":"U","NORAD_CAT_ID":54148,"ELEMENT_SET_NO":999,"REV_AT_EPOCH":17398,"BSTAR":0.0054436,"MEAN_MOTION_DOT":2.228e-05,"MEAN_MOTION_DDOT":0.0},{"OBJECT_NAME":"ONEWEB-0527","OBJECT_ID":"2022-166A","EPOCH":"2026-05-08T06:41:23.108352","MEAN_MOTION":13.21826477,"ECCENTRICITY":0.0001843,"INCLINATION":87.9233,"RA_OF_ASC_NODE":251.9381,"ARG_OF_PERICENTER":100.7517,"MEAN_ANOMALY":259.3825,"EPHEMERIS_TYPE":0,"CLASSIFICATION_TYPE":"U","NORAD_CAT_ID":54642,"ELEMENT_SET_NO":999,"REV_AT_EPOCH":16626,"BSTAR":0.00016552,"MEAN_MOTION_DOT":8.1e-07,"MEAN_MOTION_DDOT":0.0},{"OBJECT_NAME":"ONEWEB-0528","OBJECT_ID":"2022-166B","EPOCH":"2026-05-08T06:49:51.620736","MEAN_MOTION":13.21825308,"ECCENTRICITY":0.000184,"INCLINATION":87.9233,"RA_OF_ASC_NODE":251.9408,"ARG_OF_PERICENTER":93.2981,"MEAN_ANOMALY":266.8364,"EPHEMERIS_TYPE":0,"CLASSIFICATION_TYPE":"U","NORAD_CAT_ID":54643,"ELEMENT_SET_NO":999,"REV_AT_EPOCH":16627,"BSTAR":0.00028144000000000004,"MEAN_MOTION_DOT":1.29e-06,"MEAN_MOTION_DDOT":0.0},{"OBJECT_NAME":"ONEWEB-0539","OBJECT_ID":"2022-166C","EPOCH":"2026-05-08T05:56:34.134720","MEAN_MOTION":13.21825536,"ECCENTRICITY":0.0002163,"INCLINATION":87.924,"RA_OF_ASC_NODE":251.918,"ARG_OF_PERICENTER":100.1983,"MEAN_ANOMALY":259.9395,"EPHEMERIS_TYPE":0,"CLASSIFICATION_TYPE":"U","NORAD_CAT_ID":54644,"ELEMENT_SET_NO":999,"REV_AT_EPOCH":16626,"BSTAR":-0.00061447,"MEAN_MOTION_DOT":-2.41e-06,"MEAN_MOTION_DDOT":0.0},{"OBJECT_NAME":"ONEWEB-0540","OBJECT_ID":"2022-166D","EPOCH":"2026-05-07T21:01:26.304960","MEAN_MOTION":13.21826071,"ECCENTRICITY":0.0002016,"INCLINATION":87.9234,"RA_OF_ASC_NODE":252.025,"ARG_OF_PERICENTER":101.6948,"MEAN_ANOMALY":258.4412,"EPHEMERIS_TYPE":0,"CLASSIFICATION_TYPE":"U","NORAD_CAT_ID":54645,"ELEMENT_SET_NO":999,"REV_AT_EPOCH":16620,"BSTAR":-0.0006729500000000001,"MEAN_MOTION_DOT":-2.65e-06,"MEAN_MOTION_DDOT":0.0},{"OBJECT_NAME":"ONEWEB-0542","OBJECT_ID":"2022-166E","EPOCH":"2026-05-08T06:11:05.740512","MEAN_MOTION":13.21827102,"ECCENTRICITY":0.0002262,"INCLINATION":87.9244,"RA_OF_ASC_NODE":251.9141,"ARG_OF_PERICENTER":101.2618,"MEAN_ANOMALY":258.877,"EPHEMERIS_TYPE":0,"CLASSIFICATION_TYPE":"U","NORAD_CAT_ID":54646,"ELEMENT_SET_NO":999,"REV_AT_EPOCH":16626,"BSTAR":-0.00017612000000000001,"MEAN_MOTION_DOT":-6e-07,"MEAN_MOTION_DDOT":0.0},{"OBJECT_NAME":"ONEWEB-0545","OBJECT_ID":"2022-166F","EPOCH":"2026-05-07T20:15:14.414976","MEAN_MOTION":13.21824977,"ECCENTRICITY":0.000242,"INCLINATION":87.9233,"RA_OF_ASC_NODE":252.0114,"ARG_OF_PERICENTER":104.926,"MEAN_ANOMALY":255.2142,"EPHEMERIS_TYPE":0,"CLASSIFICATION_TYPE":"U","NORAD_CAT_ID":54647,"ELEMENT_SET_NO":999,"REV_AT_EPOCH":16617,"BSTAR":0.00017841000000000002,"MEAN_MOTION_DOT":8.7e-07,"MEAN_MOTION_DDOT":0.0}]